0 P/L 153 DEB
1 19245U 67053K   13282.20135538  .00000188  00000-0  12116-3 0  1055
2 19245 069.9601 216.1310 0007269 265.2684 162.7819 14.17184655373015
0 P/L 153 DEB
1 19245U 67053K   13283.27710377  .00000184  00000-0  11932-3 0  1065
2 19245 069.9601 213.7446 0007207 264.2512 250.6763 14.17185227373166
0 P/L 153 DEB
1 19245U 67053K   13286.15357760  .00000379  00000-0  21579-3 0  1084
2 19245 069.9600 207.3635 0006999 261.1444 165.3197 14.17185533373579
0 P/L 153 DEB
1 19245U 67053K   13287.21396015  .00000536  00000-0  29349-3 0  1097
2 19245 069.9600 205.0112 0006933 260.1494 174.8294 14.17185597373726
0 P/L 153 DEB
1 19245U 67053K   13288.21722993  .00000780  00000-0  41441-3 0  1106
2 19245 069.9599 202.7856 0006900 259.1350 253.0538 14.17186601373868
0 P/L 153 DEB
1 19245U 67053K   13289.82188693  .00000760  00000-0  40458-3 0  1113
2 19245 069.9598 199.2259 0006810 257.7277 159.0712 14.17188405374095
0 P/L 153 DEB
1 19245U 67053K   13291.18159593  .00000783  00000-0  41556-3 0  1128
2 19245 069.9596 196.2094 0006749 256.6322 255.4185 14.17190057374289
0 P/L 153 DEB
1 19245U 67053K   13292.85870098  .00000832  00000-0  43988-3 0  1130
2 19245 069.9595 192.4889 0006729 255.5323 170.6730 14.17192948374527
0 P/L 153 DEB
1 19245U 67053K   13294.13017543  .00000777  00000-0  41293-3 0  1147
2 19245 069.9595 189.6681 0006668 254.6089 176.8225 14.17196091374706
0 P/L 153 DEB
1 19245U 67053K   13296.12214214  .00000722  00000-0  38556-3 0  1151
2 19245 069.9595 185.2489 0006662 253.3282 258.2645 14.17200720374985
